STARLINK-5267           
1 55655U 23021AD  26068.70203247  .00001211  00000+0  10931-3 0  9992
2 55655  70.0013 164.5372 0002611 259.9022 100.1843 14.98325510169276
TELEOS-2                
1 56310U 23057C   26067.64596106  .00000863  00000+0  15043-4 0  9993
2 56310   9.9874 216.2411 0000803 295.2771  64.7359 14.96380118157711
