[{"OBJECT_NAME":"STARLINK-5267","OBJECT_ID":"2023-021AD","EPOCH":"2026-03-09T16:50:55.606272","MEAN_MOTION":14.9832551,"ECCENTRICITY":0.00026107,"INCLINATION":70.0013,"RA_OF_ASC_NODE":164.5372,"ARG_OF_PERICENTER":259.9022,"MEAN_ANOMALY":100.1843,"EPHEMERIS_TYPE":0,"CLASSIFICATION_TYPE":"U","NORAD_CAT_ID":55655,"ELEMENT_SET_NO":999,"REV_AT_EPOCH":16927,"BSTAR":0.00010930978,"MEAN_MOTION_DOT":1.211e-5,"MEAN_MOTION_DDOT":0},{"OBJECT_NAME":"TELEOS-2","OBJECT_ID":"2023-057C","EPOCH":"2026-03-08T15:30:11.035584","MEAN_MOTION":14.96380118,"ECCENTRICITY":8.033e-5,"INCLINATION":9.9874,"RA_OF_ASC_NODE":216.2411,"ARG_OF_PERICENTER":295.2771,"MEAN_ANOMALY":64.7359,"EPHEMERIS_TYPE":0,"CLASSIFICATION_TYPE":"U","NORAD_CAT_ID":56310,"ELEMENT_SET_NO":999,"REV_AT_EPOCH":15771,"BSTAR":1.5043378e-5,"MEAN_MOTION_DOT":8.63e-6,"MEAN_MOTION_DDOT":0}]
